NORAD_CAT_ID,OBJECT_NAME,OBJECT_TYPE,EPOCH,MEAN_MOTION,ECCENTRICITY,INCLINATION,RA_OF_ASC_NODE,ARG_OF_PERICENTER,MEAN_ANOMALY,BSTAR,MEAN_MOTION_DOT,MEAN_MOTION_DDOT,TLE_LINE0,TLE_LINE1,TLE_LINE2,SEMIMAJOR_AXIS,PERIOD,APOGEE,PERIGEE,DECAYED
53282.0,STARLINK-4164,PAYLOAD,2023-03-04 10:33:28,15.08856123,0.0001283,53.2162,87.8235,87.337,272.7769,0.00045759,7.005e-05,0.0,0 STARLINK-4164,1 53282U 22086AS  23063.43991045  .00007005  00000-0  45759-3 0  9992,2 53282  53.2162  87.8235 0001283  87.3370 272.7769 15.08856123 34945,6917.831,95.437,540.584,538.809,0.0
53282.0,STARLINK-4164,PAYLOAD,2023-03-04 13:44:14,15.08865321,0.0001194,53.2157,87.2297,89.5065,270.6064,0.00092692,0.00014505,0.0,0 STARLINK-4164,1 53282U 22086AS  23063.57238767  .00014505  00000-0  92692-3 0  9993,2 53282  53.2157  87.2297 0001194  89.5065 270.6064 15.08865321 34795,6917.803,95.436,540.494,538.842,0.0
53282.0,STARLINK-4164,PAYLOAD,2023-03-05 00:51:56,15.08833082,0.0001419,53.2146,85.1482,88.541,271.5744,-4.4846e-05,-1.001e-05,0.0,0 STARLINK-4164,1 53282U 22086AS  23064.03607461 -.00001001  00000-0 -44846-4 0  9994,2 53282  53.2146  85.1482 0001419  88.5410 271.5744 15.08833082 34861,6917.902,95.438,540.748,538.785,0.0
53282.0,STARLINK-4164,PAYLOAD,2023-03-05 10:24:16,15.08832253,0.000167,53.2147,83.3636,72.6467,287.4707,6.143e-05,6.9e-06,0.0,0 STARLINK-4164,1 53282U 22086AS  23064.43351971  .00000690  00000-0  61430-4 0  9999,2 53282  53.2147  83.3636 0001670  72.6467 287.4707 15.08832253 35098,6917.904,95.438,540.924,538.614,0.0
53282.0,STARLINK-4164,PAYLOAD,2023-03-05 18:21:11,15.08839882,0.0001344,53.2157,81.8765,83.1429,276.9716,0.00019648,2.84e-05,0.0,0 STARLINK-4164,1 53282U 22086AS  23064.76471856  .00002840  00000-0  19648-3 0  9992,2 53282  53.2157  81.8765 0001344  83.1429 276.9716 15.08839882 35142,6917.881,95.438,540.676,538.816,0.0
53282.0,STARLINK-4164,PAYLOAD,2023-03-06 05:28:53,15.08851621,0.0001196,53.2155,79.7954,79.3694,280.7432,0.00068834,0.00010687,0.0,0 STARLINK-4164,1 53282U 22086AS  23065.22839700  .00010687  00000-0  68834-3 0  9999,2 53282  53.2155  79.7954 0001196  79.3694 280.7432 15.08851621 35044,6917.845,95.437,540.537,538.882,0.0
53282.0,STARLINK-4164,PAYLOAD,2023-03-06 18:11:58,15.08849412,0.0001309,53.2149,77.4159,89.3147,270.7995,0.00045355,6.94e-05,0.0,0 STARLINK-4164,1 53282U 22086AS  23065.75831583  .00006940  00000-0  45355-3 0  9998,2 53282  53.2149  77.4159 0001309  89.3147 270.7995 15.08849412 35126,6917.852,95.437,540.622,538.811,0.0
53282.0,STARLINK-4164,PAYLOAD,2023-03-07 06:55:03,15.08841695,0.0001578,53.2148,75.0355,96.6913,263.4259,0.00024315,3.584e-05,0.0,0 STARLINK-4164,1 53282U 22086AS  23066.28824070  .00003584  00000-0  24315-3 0  9994,2 53282  53.2148  75.0355 0001578  96.6913 263.4259 15.08841695 35203,6917.875,95.437,540.832,538.649,0.0
53282.0,STARLINK-4164,PAYLOAD,2023-03-07 18:02:46,15.0883549,0.0002165,53.2156,72.9559,78.9497,281.1738,0.001273,0.00020028,0.0,0 STARLINK-4164,1 53282U 22086AS  23066.75193012  .00020028  00000-0  12730-2 0  9990,2 53282  53.2156  72.9559 0002165  78.9497 281.1738 15.08835490 35279,6917.894,95.438,541.257,538.261,0.0
53282.0,STARLINK-4164,PAYLOAD,2023-03-08 11:32:00,15.08870927,0.0001631,53.2158,69.6843,86.7977,273.3202,0.0023617,0.00037531,0.0,0 STARLINK-4164,1 53282U 22086AS  23067.48056355  .00037531  00000-0  23617-2 0  9992,2 53282  53.2158  69.6843 0001631  86.7977 273.3202 15.08870927 35382,6917.786,95.436,540.779,538.523,0.0
53282.0,STARLINK-4164,PAYLOAD,2023-03-09 06:36:38,15.08864499,0.0001543,53.2158,66.1154,101.4589,258.6576,0.0021062,0.00033414,0.0,0 STARLINK-4164,1 53282U 22086AS  23068.27544234  .00033414  00000-0  21062-2 0  9996,2 53282  53.2158  66.1154 0001543 101.4589 258.6576 15.08864499 35506,6917.806,95.436,540.738,538.603,0.0
53282.0,STARLINK-4164,PAYLOAD,2023-03-09 16:08:57,15.08856653,0.0001963,53.2159,64.3308,86.7714,273.3502,0.0017607,0.00027858,0.0,0 STARLINK-4164,1 53282U 22086AS  23068.67288318  .00027858  00000-0  17607-2 0  9993,2 53282  53.2159  64.3308 0001963  86.7714 273.3502 15.08856653 35561,6917.829,95.437,541.052,538.337,0.0
53282.0,STARLINK-4164,PAYLOAD,2023-03-10 04:52:01,15.08857713,0.0001657,53.2172,61.9534,112.1595,247.9573,0.0014596,0.00023029,0.0,0 STARLINK-4164,1 53282U 22086AS  23069.20279910  .00023029  00000-0  14596-2 0  9991,2 53282  53.2172  61.9534 0001657 112.1595 247.9573 15.08857713 35643,6917.826,95.436,540.838,538.545,0.0
53282.0,STARLINK-4164,PAYLOAD,2023-03-10 22:21:16,15.08851416,0.0002666,53.2165,58.6804,103.3133,256.8157,0.0013865,0.00021855,0.0,0 STARLINK-4164,1 53282U 22086AS  23069.93144193  .00021855  00000-0  13865-2 0  9998,2 53282  53.2165  58.6804 0002666 103.3133 256.8157 15.08851416 35921,6917.845,95.437,541.555,537.866,0.0
53282.0,STARLINK-4164,PAYLOAD,2023-03-11 06:18:12,15.08837504,0.0001035,53.2168,57.1929,59.8358,300.2737,0.0012204,0.00019187,0.0,0 STARLINK-4164,1 53282U 22086AS  23070.26264571  .00019187  00000-0  12204-2 0  9990,2 53282  53.2168  57.1929 0001035  59.8358 300.2737 15.08837504 35806,6917.888,95.438,540.469,539.037,0.0
53282.0,STARLINK-4164,PAYLOAD,2023-03-11 09:28:58,15.08842865,0.000119,53.2166,56.5984,77.6727,282.4398,0.0012128,0.00019068,0.0,0 STARLINK-4164,1 53282U 22086AS  23070.39512513  .00019068  00000-0  12128-2 0  9999,2 53282  53.2166  56.5984 0001190  77.6727 282.4398 15.08842865 35998,6917.872,95.437,540.56,538.913,0.0
53282.0,STARLINK-4164,PAYLOAD,2023-03-12 07:44:22,15.08846785,0.0001332,53.2159,52.4354,78.7789,281.3352,0.00056925,8.785e-05,0.0,0 STARLINK-4164,1 53282U 22086AS  23071.32248481  .00008785  00000-0  56925-3 0  9991,2 53282  53.2159  52.4354 0001332  78.7789 281.3352 15.08846785 35964,6917.86,95.437,540.646,538.803,0.0
53282.0,STARLINK-4164,PAYLOAD,2023-03-12 10:55:08,15.08864383,0.0001714,53.2183,51.8403,81.5166,278.6021,0.0012937,0.00020375,0.0,0 STARLINK-4164,1 53282U 22086AS  23071.45496354  .00020375  00000-0  12937-2 0  9992,2 53282  53.2183  51.8403 0001714  81.5166 278.6021 15.08864383 36152,6917.806,95.436,540.857,538.485,0.0
53282.0,STARLINK-4164,PAYLOAD,2023-03-13 07:35:09,15.08848116,0.0001475,53.2172,47.9752,93.1539,266.9622,0.0006141,9.501e-05,0.0,0 STARLINK-4164,1 53282U 22086AS  23072.31608355  .00009501  00000-0  61410-3 0  9993,2 53282  53.2172  47.9752 0001475  93.1539 266.9622 15.08848116 36119,6917.856,95.437,540.741,538.7,0.0
53282.0,STARLINK-4164,PAYLOAD,2023-03-14 04:15:11,15.08829301,0.0001754,53.2168,44.1049,103.7295,256.3892,0.00050844,7.811e-05,0.0,0 STARLINK-4164,1 53282U 22086AS  23073.17721378  .00007811  00000-0  50844-3 0  9990,2 53282  53.2168  44.1049 0001754 103.7295 256.3892 15.08829301 36240,6917.913,95.438,540.991,538.565,0.0
53282.0,STARLINK-4164,PAYLOAD,2023-03-14 07:25:57,15.08836841,0.0001657,53.217,43.513,98.6014,261.5166,0.0005933,9.166e-05,0.0,0 STARLINK-4164,1 53282U 22086AS  23073.30969349  .00009166  00000-0  59330-3 0  9991,2 53282  53.2170  43.5130 0001657  98.6014 261.5166 15.08836841 36430,6917.89,95.438,540.901,538.609,0.0
53282.0,STARLINK-4164,PAYLOAD,2023-03-14 15:22:53,15.08845702,0.0001436,53.2163,42.0272,99.2178,260.8976,0.00055669,8.584e-05,0.0,0 STARLINK-4164,1 53282U 22086AS  23073.64089342  .00008584  00000-0  55669-3 0  9998,2 53282  53.2163  42.0272 0001436  99.2178 260.8976 15.08845702 36488,6917.863,95.437,540.721,538.735,0.0
53282.0,STARLINK-4164,PAYLOAD,2023-03-15 04:05:57,15.0887755,0.0001398,53.2154,39.6508,87.5592,272.556,0.0014466,0.00022833,0.0,0 STARLINK-4164,1 53282U 22086AS  23074.17080394  .00022833  00000-0  14466-2 0  9997,2 53282  53.2154  39.6508 0001398  87.5592 272.5560 15.08877550 36394,6917.766,95.435,540.598,538.664,0.0
53282.0,STARLINK-4164,PAYLOAD,2023-03-15 07:16:43,15.0889321,0.0001702,53.2166,39.0529,97.3261,262.7924,0.0019099,0.00030284,0.0,0 STARLINK-4164,1 53282U 22086AS  23074.30327893  .00030284  00000-0  19099-2 0  9996,2 53282  53.2166  39.0529 0001702  97.3261 262.7924 15.08893210 36582,6917.718,95.434,540.76,538.405,0.0
53282.0,STARLINK-4164,PAYLOAD,2023-03-16 03:56:44,15.08855039,9.23e-05,53.2165,35.1885,87.4927,272.6171,0.0017619,0.00027875,0.0,0 STARLINK-4164,1 53282U 22086AS  23075.16440059  .00027875  00000-0  17619-2 0  9999,2 53282  53.2165  35.1885 0000923  87.4927 272.6171 15.08855039 36543,6917.834,95.437,540.338,539.061,0.0
53282.0,STARLINK-4164,PAYLOAD,2023-03-16 21:25:59,15.08826042,0.0001235,53.2165,31.917,88.5556,271.5578,0.001809,0.00028608,0.0,0 STARLINK-4164,1 53282U 22086AS  23075.89304972  .00028608  00000-0  18090-2 0  9991,2 53282  53.2165  31.9170 0001235  88.5556 271.5578 15.08826042 36823,6917.923,95.438,540.642,538.934,0.0
53282.0,STARLINK-4164,PAYLOAD,2023-03-16 23:01:22,15.08806921,0.0002181,53.2164,31.6202,308.8548,51.2249,0.00095828,0.00014982,0.0,0 STARLINK-4164,1 53282U 22086AS  23075.95929159  .00014982  00000-0  95828-3 0  9993,2 53282  53.2164  31.6202 0002181 308.8548  51.2249 15.08806921 36669,6917.982,95.44,541.355,538.338,0.0
53282.0,STARLINK-4164,PAYLOAD,2023-03-17 06:58:18,15.08829124,8.6e-05,53.2165,30.1345,112.5972,247.5111,0.00083311,0.00012992,0.0,0 STARLINK-4164,1 53282U 22086AS  23076.29049168  .00012992  00000-0  83311-3 0  9997,2 53282  53.2165  30.1345 0000860 112.5972 247.5111 15.08829124 36719,6917.914,95.438,540.374,539.184,0.0
53282.0,STARLINK-4164,PAYLOAD,2023-03-17 13:19:51,15.08833244,8.88e-05,53.2159,28.9444,114.5338,245.5747,0.00066915,0.00010376,0.0,0 STARLINK-4164,1 53282U 22086AS  23076.55545323  .00010376  00000-0  66915-3 0  9995,2 53282  53.2159  28.9444 0000888 114.5338 245.5747 15.08833244 36929,6917.901,95.438,540.38,539.152,0.0
53282.0,STARLINK-4164,PAYLOAD,2023-03-17 21:16:46,15.08836797,8.89e-05,53.2161,27.4576,115.11,244.9984,0.00056731,8.752e-05,0.0,0 STARLINK-4164,1 53282U 22086AS  23076.88665470  .00008752  00000-0  56731-3 0  9997,2 53282  53.2161  27.4576 0000889 115.1100 244.9984 15.08836797 36974,6917.89,95.438,540.37,539.14,0.0
